NORAD_CAT_ID,OBJECT_NAME,OBJECT_TYPE,EPOCH,MEAN_MOTION,ECCENTRICITY,INCLINATION,RA_OF_ASC_NODE,ARG_OF_PERICENTER,MEAN_ANOMALY,BSTAR,MEAN_MOTION_DOT,MEAN_MOTION_DDOT,TLE_LINE0,TLE_LINE1,TLE_LINE2,SEMIMAJOR_AXIS,PERIOD,APOGEE,PERIGEE,DECAYED
53430.0,STARLINK-4538,PAYLOAD,2023-03-16 01:01:51,15.08857357,0.0001197,53.218,315.7699,95.5321,264.5808,0.00017068,2.431e-05,0.0,0 STARLINK-4538,1 53430U 22097AU  23075.04296261  .00002431  00000-0  17068-3 0  9997,2 53430  53.2180 315.7699 0001197  95.5321 264.5808 15.08857357 33805,6917.827,95.436,540.52,538.864,0.0
53430.0,STARLINK-4538,PAYLOAD,2023-03-16 18:31:07,15.0884708,0.0001212,53.2183,312.4981,97.0739,263.0391,-0.00021611,-3.726e-05,0.0,0 STARLINK-4538,1 53430U 22097AU  23075.77161988 -.00003726  00000-0 -21611-3 0  9993,2 53430  53.2183 312.4981 0001212  97.0739 263.0391 15.08847080 34370,6917.859,95.437,540.562,538.885,0.0
53430.0,STARLINK-4538,PAYLOAD,2023-03-16 23:17:17,15.08849402,0.0001285,53.2186,311.6066,91.7646,268.3494,-0.00017678,-3.101e-05,0.0,0 STARLINK-4538,1 53430U 22097AU  23075.97033628 -.00003101  00000-0 -17678-3 0  9999,2 53430  53.2186 311.6066 0001285  91.7646 268.3494 15.08849402 33940,6917.852,95.437,540.606,538.828,0.0
53430.0,STARLINK-4538,PAYLOAD,2023-03-17 08:49:36,15.08843022,0.0001327,53.2171,309.8258,85.4753,274.639,-0.00022325,-3.839e-05,0.0,0 STARLINK-4538,1 53430U 22097AU  23076.36778238 -.00003839  00000-0 -22325-3 0  9999,2 53430  53.2171 309.8258 0001327  85.4753 274.6390 15.08843022 34007,6917.871,95.437,540.654,538.818,0.0
53430.0,STARLINK-4538,PAYLOAD,2023-03-17 21:32:41,15.08844908,0.0001216,53.218,307.4454,82.2939,277.8191,-0.00015432,-2.743e-05,0.0,0 STARLINK-4538,1 53430U 22097AU  23076.89770193 -.00002743  00000-0 -15432-3 0  9993,2 53430  53.2180 307.4454 0001216  82.2939 277.8191 15.08844908 34544,6917.865,95.437,540.572,538.889,0.0
53430.0,STARLINK-4538,PAYLOAD,2023-03-18 00:43:27,15.08853633,0.0001479,53.2174,306.852,82.7408,277.3752,-8.0589e-05,-1.571e-05,0.0,0 STARLINK-4538,1 53430U 22097AU  23077.03017364 -.00001571  00000-0 -80589-4 0  9998,2 53430  53.2174 306.8520 0001479  82.7408 277.3752 15.08853633 34106,6917.839,95.437,540.727,538.681,0.0
53430.0,STARLINK-4538,PAYLOAD,2023-03-18 08:40:22,15.08847612,0.0001439,53.217,305.3659,87.2982,272.8175,-7.9931e-05,-1.56e-05,0.0,0 STARLINK-4538,1 53430U 22097AU  23077.36137719 -.00001560  00000-0 -79931-4 0  9998,2 53430  53.2170 305.3659 0001439  87.2982 272.8175 15.08847612 34156,6917.857,95.437,540.718,538.727,0.0
53430.0,STARLINK-4538,PAYLOAD,2023-03-18 21:23:27,15.08844447,0.0001313,53.217,302.9848,82.6477,277.4665,6.7865e-05,7.92e-06,0.0,0 STARLINK-4538,1 53430U 22097AU  23077.89129385  .00000792  00000-0  67865-4 0  9993,2 53430  53.2170 302.9848 0001313  82.6477 277.4665 15.08844447 34695,6917.867,95.437,540.64,538.823,0.0
53430.0,STARLINK-4538,PAYLOAD,2023-03-19 08:31:09,15.08840697,0.0001347,53.2163,300.9018,85.3643,274.7503,3.3117e-05,2.39e-06,0.0,0 STARLINK-4538,1 53430U 22097AU  23078.35497588  .00000239  00000-0  33117-4 0  9997,2 53430  53.2163 300.9018 0001347  85.3643 274.7503 15.08840697 34768,6917.878,95.438,540.675,538.811,0.0
53430.0,STARLINK-4538,PAYLOAD,2023-03-19 21:14:15,15.08837063,0.0001285,53.218,298.5245,84.1336,275.9803,5.4239e-05,5.75e-06,0.0,0 STARLINK-4538,1 53430U 22097AU  23078.88489830  .00000575  00000-0  54239-4 0  9997,2 53430  53.2180 298.5245 0001285  84.1336 275.9803 15.08837063 34385,6917.889,95.438,540.643,538.865,0.0
53430.0,STARLINK-4538,PAYLOAD,2023-03-20 00:25:01,15.08841812,0.0001402,53.2187,297.9296,91.2103,268.905,6.1422e-05,6.9e-06,0.0,0 STARLINK-4538,1 53430U 22097AU  23079.01737492  .00000690  00000-0  61422-4 0  9993,2 53430  53.2187 297.9296 0001402  91.2103 268.9050 15.08841812 34869,6917.875,95.437,540.71,538.77,0.0
53430.0,STARLINK-4538,PAYLOAD,2023-03-20 21:05:02,15.08839976,0.0001317,53.2169,294.065,88.245,271.8693,6.0152e-06,-1.92e-06,0.0,0 STARLINK-4538,1 53430U 22097AU  23079.87849759 -.00000192  00000-0  60152-5 0  9995,2 53430  53.2169 294.0650 0001317  88.2450 271.8693 15.08839976 34995,6917.88,95.438,540.657,538.834,0.0
53430.0,STARLINK-4538,PAYLOAD,2023-03-21 20:55:49,15.08837147,0.0001221,53.2172,289.6043,95.9427,264.1705,1.1381e-05,-1.07e-06,0.0,0 STARLINK-4538,1 53430U 22097AU  23080.87209876 -.00000107  00000-0  11381-4 0  9992,2 53430  53.2172 289.6043 0001221  95.9427 264.1705 15.08837147 34681,6917.889,95.438,540.599,538.909,0.0
53430.0,STARLINK-4538,PAYLOAD,2023-03-22 06:28:07,15.08844648,0.0001267,53.2178,287.8195,91.501,268.6127,3.212e-05,2.23e-06,0.0,0 STARLINK-4538,1 53430U 22097AU  23081.26953254  .00000223  00000-0  32120-4 0  9994,2 53430  53.2178 287.8195 0001267  91.5010 268.6127 15.08844648 34743,6917.866,95.437,540.608,538.855,0.0
53430.0,STARLINK-4538,PAYLOAD,2023-03-22 19:11:13,15.08833876,0.0001283,53.2183,285.4429,98.5657,261.5481,-4.0303e-05,-9.29e-06,0.0,0 STARLINK-4538,1 53430U 22097AU  23081.79946504 -.00000929  00000-0 -40303-4 0  9999,2 53430  53.2183 285.4429 0001283  98.5657 261.5481 15.08833876 34820,6917.899,95.438,540.652,538.877,0.0
53430.0,STARLINK-4538,PAYLOAD,2023-03-23 20:37:23,15.08844522,0.0001005,53.2166,280.6824,85.7332,274.3775,-2.7211e-06,-3.31e-06,0.0,0 STARLINK-4538,1 53430U 22097AU  23082.85930075 -.00000331  00000-0 -27211-5 0  9994,2 53430  53.2166 280.6824 0001005  85.7332 274.3775 15.08844522 34982,6917.867,95.437,540.427,539.036,0.0
53430.0,STARLINK-4538,PAYLOAD,2023-03-23 23:48:09,15.08852401,9.86e-05,53.2164,280.0866,104.8618,255.2483,3.8017e-05,3.18e-06,0.0,0 STARLINK-4538,1 53430U 22097AU  23082.99177221  .00000318  00000-0  38017-4 0  9993,2 53430  53.2164 280.0866 0000986 104.8618 255.2483 15.08852401 35000,6917.842,95.437,540.39,539.025,0.0
53430.0,STARLINK-4538,PAYLOAD,2023-03-24 06:09:41,15.08852448,0.0001034,53.2166,278.8978,89.3862,270.7248,6.173e-05,6.95e-06,0.0,0 STARLINK-4538,1 53430U 22097AU  23083.25673066  .00000695  00000-0  61730-4 0  9997,2 53430  53.2166 278.8978 0001034  89.3862 270.7248 15.08852448 35501,6917.842,95.437,540.423,538.992,0.0
53430.0,STARLINK-4538,PAYLOAD,2023-03-24 17:17:22,15.0886108,0.0001265,53.2163,276.8182,74.4699,285.6433,0.00023599,3.472e-05,0.0,0 STARLINK-4538,1 53430U 22097AU  23083.72039686  .00003472  00000-0  23599-3 0  9999,2 53430  53.2163 276.8182 0001265  74.4699 285.6433 15.08861080 35112,6917.816,95.436,540.556,538.806,0.0
53430.0,STARLINK-4538,PAYLOAD,2023-03-24 20:28:07,15.08870776,0.0001025,53.2168,276.2229,74.7147,285.3958,0.00028343,4.23e-05,0.0,0 STARLINK-4538,1 53430U 22097AU  23083.85286647  .00004230  00000-0  28343-3 0  9999,2 53430  53.2168 276.2229 0001025  74.7147 285.3958 15.08870776 35131,6917.786,95.436,540.36,538.942,0.0
53430.0,STARLINK-4538,PAYLOAD,2023-03-24 22:03:30,15.08873055,0.0001051,53.2168,275.9244,83.5234,276.5878,0.00029409,4.4e-05,0.0,0 STARLINK-4538,1 53430U 22097AU  23083.91910310  .00004400  00000-0  29409-3 0  9990,2 53430  53.2168 275.9244 0001051  83.5234 276.5878 15.08873055 35606,6917.779,95.435,540.371,538.917,0.0
53430.0,STARLINK-4538,PAYLOAD,2023-03-25 06:00:32,15.08792164,0.0001203,53.2161,274.4405,85.7598,274.3531,-0.00036072,-6.016e-05,0.0,0 STARLINK-4538,1 53430U 22097AU  23084.25037358 -.00006016  00000-0 -36072-3 0  9991,2 53430  53.2161 274.4405 0001203  85.7598 274.3531 15.08792164 35195,6918.027,95.441,540.724,539.059,0.0
53430.0,STARLINK-4538,PAYLOAD,2023-03-25 18:43:37,15.08802745,0.0001091,53.2162,272.0614,85.904,274.2077,-0.00035333,-5.901e-05,0.0,0 STARLINK-4538,1 53430U 22097AU  23084.78029763 -.00005901  00000-0 -35333-3 0  9991,2 53430  53.2162 272.0614 0001091  85.9040 274.2077 15.08802745 35271,6917.994,95.44,540.614,539.105,0.0
53430.0,STARLINK-4538,PAYLOAD,2023-03-26 12:12:51,15.0882157,7.07e-05,53.2165,268.7906,91.2589,268.8485,-0.00019607,-3.405e-05,0.0,0 STARLINK-4538,1 53430U 22097AU  23085.50892807 -.00003405  00000-0 -19607-3 0  9992,2 53430  53.2165 268.7906 0000707  91.2589 268.8485 15.08821570 35382,6917.937,95.439,540.291,539.313,0.0
53430.0,STARLINK-4538,PAYLOAD,2023-03-26 18:34:22,15.0883912,0.0001085,53.2169,267.5988,108.9295,251.1815,-0.00014679,-2.623e-05,0.0,0 STARLINK-4538,1 53430U 22097AU  23085.77387687 -.00002623  00000-0 -14679-3 0  9991,2 53430  53.2169 267.5988 0001085 108.9295 251.1815 15.08839120 35420,6917.883,95.438,540.499,538.997,0.0
53430.0,STARLINK-4538,PAYLOAD,2023-03-26 23:20:31,15.08849069,0.0001082,53.2166,266.7057,110.4489,249.6619,-0.00016798,-2.961e-05,0.0,0 STARLINK-4538,1 53430U 22097AU  23085.97259157 -.00002961  00000-0 -16798-3 0  9992,2 53430  53.2166 266.7057 0001082 110.4489 249.6619 15.08849069 35455,6917.853,95.437,540.466,538.969,0.0
53430.0,STARLINK-4538,PAYLOAD,2023-03-27 18:25:09,15.0882979,8.07e-05,53.2164,263.1399,114.5435,245.5642,0.00042389,6.463e-05,0.0,0 STARLINK-4538,1 53430U 22097AU  23086.76746547  .00006463  00000-0  42389-3 0  9998,2 53430  53.2164 263.1399 0000807 114.5435 245.5642 15.08829790 36038,6917.912,95.438,540.335,539.218,0.0
53430.0,STARLINK-4538,PAYLOAD,2023-03-27 23:11:17,15.08851189,9.09e-05,53.2165,262.2462,118.873,241.2353,0.00046626,7.143e-05,0.0,0 STARLINK-4538,1 53430U 22097AU  23086.96617013  .00007143  00000-0  46626-3 0  9999,2 53430  53.2165 262.2462 0000909 118.8730 241.2353 15.08851189 35609,6917.846,95.437,540.34,539.082,0.0
53430.0,STARLINK-4538,PAYLOAD,2023-03-28 11:54:24,15.08834863,0.0001097,53.2168,259.8673,111.0692,249.0417,6.0037e-05,6.68e-06,0.0,0 STARLINK-4538,1 53430U 22097AU  23087.49611662  .00000668  00000-0  60037-4 0  9990,2 53430  53.2168 259.8673 0001097 111.0692 249.0417 15.08834863 36146,6917.896,95.438,540.52,539.002,0.0
53430.0,STARLINK-4538,PAYLOAD,2023-03-28 16:40:33,15.08837645,0.0001036,53.2169,258.9758,108.0948,252.0157,7.9163e-05,9.72e-06,0.0,0 STARLINK-4538,1 53430U 22097AU  23087.69483436  .00000972  00000-0  79163-4 0  9996,2 53430  53.2169 258.9758 0001036 108.0948 252.0157 15.08837645 35712,6917.888,95.438,540.469,539.036,0.0
